{
    "links": {
        "self": "http://www.neowsapp.com/rest/v1/neo/54062081?api_key=iIulBulltgU6a56xZRHN4H3l9WmuAYTsLGpBGhQ2"
    },
    "id": "54062081",
    "neo_reference_id": "54062081",
    "name": "(2020 TQ4)",
    "designation": "2020 TQ4",
    "nasa_jpl_url": "http://ssd.jpl.nasa.gov/sbdb.cgi?sstr=54062081",
    "absolute_magnitude_h": 22.964,
    "estimated_diameter": {
        "kilometers": {
            "estimated_diameter_min": 0.0678820543,
            "estimated_diameter_max": 0.1517888878
        },
        "meters": {
            "estimated_diameter_min": 67.882054269,
            "estimated_diameter_max": 151.7888877978
        },
        "miles": {
            "estimated_diameter_min": 0.0421799399,
            "estimated_diameter_max": 0.094317213
        },
        "feet": {
            "estimated_diameter_min": 222.710158928,
            "estimated_diameter_max": 497.9950546427
        }
    },
    "is_potentially_hazardous_asteroid": false,
    "close_approach_data": [
        {
            "close_approach_date": "2020-07-15",
            "close_approach_date_full": "2020-Jul-15 11:34",
            "epoch_date_close_approach": 1594812840000,
            "relative_velocity": {
                "kilometers_per_second": "3.7478496975",
                "kilometers_per_hour": "13492.2589110828",
                "miles_per_hour": "8383.5649883892"
            },
            "miss_distance": {
                "astronomical": "0.2132100548",
                "lunar": "82.9387113172",
                "kilometers": "31895770.060663276",
                "miles": "19819112.4912381688"
            },
            "orbiting_body": "Earth"
        }
    ],
    "orbital_data": {
        "orbit_id": "3",
        "orbit_determination_date": "2020-11-03 07:53:13",
        "first_observation_date": "2020-10-10",
        "last_observation_date": "2020-10-14",
        "data_arc_in_days": 4,
        "observations_used": 24,
        "orbit_uncertainty": "8",
        "minimum_orbit_intersection": ".158018",
        "jupiter_tisserand_invariant": "4.566",
        "epoch_osculation": "2459134.5",
        "eccentricity": ".2348254695655713",
        "semi_major_axis": "1.470232367924635",
        "inclination": "6.571247843569819",
        "ascending_node_longitude": "37.92723184818909",
        "orbital_period": "651.1445298431191",
        "perihelion_distance": "1.124984361756231",
        "perihelion_argument": "256.2755236973027",
        "aphelion_distance": "1.81548037409304",
        "perihelion_time": "2459039.070500040133",
        "mean_anomaly": "52.76036027489813",
        "mean_motion": ".5528726473164647",
        "equinox": "J2000",
        "orbit_class": {
            "orbit_class_type": "AMO",
            "orbit_class_description": "Near-Earth asteroid orbits similar to that of 1221 Amor",
            "orbit_class_range": "1.017 AU < q (perihelion) < 1.3 AU"
        }
    },
    "is_sentry_object": false
}